[{"OBJECT_NAME":"TEVEL2-1","OBJECT_ID":"2025-052H","EPOCH":"2026-03-09T15:32:51.927072","MEAN_MOTION":15.30341923,"ECCENTRICITY":0.0004767,"INCLINATION":97.3991,"RA_OF_ASC_NODE":324.7682,"ARG_OF_PERICENTER":104.8919,"MEAN_ANOMALY":255.2849,"EPHEMERIS_TYPE":0,"CLASSIFICATION_TYPE":"U","NORAD_CAT_ID":63217,"ELEMENT_SET_NO":999,"REV_AT_EPOCH":5485,"BSTAR":0.000706,"MEAN_MOTION_DOT":0.00020683,"MEAN_MOTION_DDOT":0},{"OBJECT_NAME":"STARLINK-34486","OBJECT_ID":"2025-137D","EPOCH":"2026-03-09T23:30:47.140992","MEAN_MOTION":15.30200925,"ECCENTRICITY":0.00014257,"INCLINATION":53.1606,"RA_OF_ASC_NODE":334.2903,"ARG_OF_PERICENTER":124.0727,"MEAN_ANOMALY":236.0409,"EPHEMERIS_TYPE":0,"CLASSIFICATION_TYPE":"U","NORAD_CAT_ID":64597,"ELEMENT_SET_NO":999,"REV_AT_EPOCH":4077,"BSTAR":0.00058700101,"MEAN_MOTION_DOT":0.00017067,"MEAN_MOTION_DDOT":0}]
